{
    "links": {
        "self": "http://www.neowsapp.com/rest/v1/neo/3661549?api_key=iIulBulltgU6a56xZRHN4H3l9WmuAYTsLGpBGhQ2"
    },
    "id": "3661549",
    "neo_reference_id": "3661549",
    "name": "(2014 DB)",
    "designation": "2014 DB",
    "nasa_jpl_url": "http://ssd.jpl.nasa.gov/sbdb.cgi?sstr=3661549",
    "absolute_magnitude_h": 23.5,
    "estimated_diameter": {
        "kilometers": {
            "estimated_diameter_min": 0.0530340723,
            "estimated_diameter_max": 0.1185877909
        },
        "meters": {
            "estimated_diameter_min": 53.0340723319,
            "estimated_diameter_max": 118.5877908577
        },
        "miles": {
            "estimated_diameter_min": 0.0329538346,
            "estimated_diameter_max": 0.0736870142
        },
        "feet": {
            "estimated_diameter_min": 173.9963058693,
            "estimated_diameter_max": 389.0675677576
        }
    },
    "is_potentially_hazardous_asteroid": false,
    "close_approach_data": [
        {
            "close_approach_date": "2010-08-29",
            "close_approach_date_full": "2010-Aug-29 19:28",
            "epoch_date_close_approach": 1283110080000,
            "relative_velocity": {
                "kilometers_per_second": "23.2118396927",
                "kilometers_per_hour": "83562.6228935681",
                "miles_per_hour": "51922.5642085062"
            },
            "miss_distance": {
                "astronomical": "0.181177883",
                "lunar": "70.478196487",
                "kilometers": "27103825.38790921",
                "miles": "16841536.143638698"
            },
            "orbiting_body": "Earth"
        },
        {
            "close_approach_date": "2014-02-16",
            "close_approach_date_full": "2014-Feb-16 15:54",
            "epoch_date_close_approach": 1392566040000,
            "relative_velocity": {
                "kilometers_per_second": "25.952698283",
                "kilometers_per_hour": "93429.7138188716",
                "miles_per_hour": "58053.5907892872"
            },
            "miss_distance": {
                "astronomical": "0.0347657709",
                "lunar": "13.5238848801",
                "kilometers": "5200885.275547983",
                "miles": "3231680.2552208454"
            },
            "orbiting_body": "Earth"
        },
        {
            "close_approach_date": "2139-08-17",
            "close_approach_date_full": "2139-Aug-17 06:26",
            "epoch_date_close_approach": 5352848760000,
            "relative_velocity": {
                "kilometers_per_second": "29.0752295036",
                "kilometers_per_hour": "104670.8262130907",
                "miles_per_hour": "65038.380876684"
            },
            "miss_distance": {
                "astronomical": "0.1774066967",
                "lunar": "69.0112050163",
                "kilometers": "26539663.950056029",
                "miles": "16490982.4815460402"
            },
            "orbiting_body": "Earth"
        }
    ],
    "orbital_data": {
        "orbit_id": "7",
        "orbit_determination_date": "2017-04-06 08:42:27",
        "first_observation_date": "2014-02-18",
        "last_observation_date": "2014-03-05",
        "data_arc_in_days": 15,
        "observations_used": 55,
        "orbit_uncertainty": "8",
        "minimum_orbit_intersection": ".0172036",
        "jupiter_tisserand_invariant": "4.497",
        "epoch_osculation": "2456707.5",
        "eccentricity": ".4878345482042551",
        "semi_major_axis": "1.352279787016427",
        "inclination": "43.20613198498562",
        "ascending_node_longitude": "149.1714895360149",
        "orbital_period": "574.3786144592929",
        "perihelion_distance": ".6925909880715219",
        "perihelion_argument": "270.09370919",
        "aphelion_distance": "2.011968585961332",
        "perihelion_time": "2456648.673852129381",
        "mean_anomaly": "36.87012834445235",
        "mean_motion": ".6267642821954572",
        "equinox": "J2000",
        "orbit_class": {
            "orbit_class_type": "APO",
            "orbit_class_description": "Near-Earth asteroid orbits which cross the Earth’s orbit similar to that of 1862 Apollo",
            "orbit_class_range": "a (semi-major axis) > 1.0 AU; q (perihelion) < 1.017 AU"
        }
    },
    "is_sentry_object": false
}